[{"OBJECT_NAME":"WILDFIRE 10","OBJECT_ID":"2023-133K","EPOCH":"2026-03-09T14:42:38.491200","MEAN_MOTION":13.85595388,"ECCENTRICITY":0.0005198,"INCLINATION":80.9995,"RA_OF_ASC_NODE":103.0888,"ARG_OF_PERICENTER":272.2038,"MEAN_ANOMALY":87.8523,"EPHEMERIS_TYPE":0,"CLASSIFICATION_TYPE":"U","NORAD_CAT_ID":57766,"ELEMENT_SET_NO":999,"REV_AT_EPOCH":12725,"BSTAR":6.2193e-5,"MEAN_MOTION_DOT":8.2e-7,"MEAN_MOTION_DDOT":0},{"OBJECT_NAME":"SDA_1664","OBJECT_ID":"2025-230A","EPOCH":"2026-03-09T22:53:15.948384","MEAN_MOTION":13.84453987,"ECCENTRICITY":0.00026169,"INCLINATION":81.2983,"RA_OF_ASC_NODE":303.7448,"ARG_OF_PERICENTER":69.1255,"MEAN_ANOMALY":291.0182,"EPHEMERIS_TYPE":0,"CLASSIFICATION_TYPE":"U","NORAD_CAT_ID":65974,"ELEMENT_SET_NO":999,"REV_AT_EPOCH":2007,"BSTAR":-0.026604975,"MEAN_MOTION_DOT":-0.00029653,"MEAN_MOTION_DDOT":0}]
